AgentID,Name,Email,Phone,City,State,Region,CertificationLevel,YearsExperience,HireDate,SpecializationType,LanguagesSpoken,CurrentQuota,TeamID
AGT0000,Terry Sullivan,lanekenneth@example.net,274.285.2795x101,Port Judychester,Colorado,Nevada,Senior,11,2020-09-13,Multi-line,English,749345,TM19
AGT0001,Amy Nichols,mollyharris@example.net,848-200-9839x183,Lake Sharon,New York,Maryland,Senior,11,2023-02-22,Health,English,934569,TM07
AGT0002,Erica Smith,tricia76@example.net,501-258-8788x5563,North Amyborough,Louisiana,Arizona,Junior,1,2023-07-13,Health,English,1939680,TM17
AGT0003,Natasha Schroeder,toni81@example.net,001-952-651-7733x312,Douglasbury,South Carolina,Texas,Senior,14,2015-11-20,Property,English,1710304,TM06
AGT0004,Mr. Kenneth Bernard,moorekimberly@example.com,+1-784-856-7587x894,West Anthonyburgh,Illinois,Kentucky,Senior,14,2024-02-09,Health,"English, French",579658,TM18
AGT0005,Timothy Franco,donnacopeland@example.net,260-891-0167x4498,East Sydneyton,Oklahoma,Delaware,Junior,2,2016-06-16,Multi-line,"English, French",1674191,TM14
AGT0006,Kevin Harper,millerbrittany@example.com,(206)262-5797x9502,Walkerhaven,Texas,Idaho,Senior,13,2016-04-30,Life,English,554942,TM02
AGT0007,Michael Adkins,alexandersara@example.org,7595871734,Hughesborough,Wisconsin,Texas,Associate,9,2017-04-21,Health,English,1204071,TM05
AGT0008,Mary Ford,deanna05@example.net,654-341-7374x2198,Collinsmouth,Illinois,Washington,Senior,10,2015-06-05,Health,English,1422518,TM01
AGT0009,Mrs. Michelle Brown MD,suzanne16@example.net,202.468.8319,North Jesse,Arizona,California,Associate,9,2023-01-08,Property,English,1328849,TM12
AGT0010,Connie Pearson,jacob63@example.com,+1-788-677-2009,Ashleyburgh,Oregon,Alabama,Senior,11,2023-04-11,Life,English,910071,TM05
AGT0011,Casey Nguyen,wendystrickland@example.org,422-870-1993,Dianamouth,New Mexico,Pennsylvania,Associate,5,2024-10-21,Property,"English, Spanish",1110226,TM07
AGT0012,Angela Martin,nancy36@example.org,814.722.5322x032,Port Joshua,Illinois,Wisconsin,Associate,7,2020-08-17,Property,"English, French",932098,TM10
AGT0013,Dawn Fletcher,austinbrock@example.net,390-970-1061x0033,Cortezland,Tennessee,Louisiana,Expert,18,2021-12-03,Property,"English, Spanish",1973445,TM13
AGT0014,Jimmy Mckee,suzannewilliams@example.com,(568)510-4258,Crossview,Nevada,Florida,Junior,3,2019-12-19,Health,"English, Spanish",1320538,TM17
AGT0015,Michael Miller,robertreynolds@example.net,(708)235-1556x631,West Christinestad,New Mexico,Rhode Island,Expert,17,2023-11-20,Health,"English, French",1469566,TM17
AGT0016,Susan Harris,parsonskaren@example.com,+1-831-561-9493x05191,Carterland,Massachusetts,Missouri,Associate,9,2016-04-30,Life,"English, Spanish, French",627971,TM04
AGT0017,Chad Beck,staffordjesse@example.org,367.456.8923,Ericmouth,Colorado,Wyoming,Associate,8,2023-02-17,Life,English,1424028,TM07
AGT0018,Samantha Copeland,taylorchelsea@example.org,691-267-6753x3212,South Joseside,Wisconsin,Kentucky,Expert,18,2022-07-23,Health,"English, Spanish",1964429,TM17
AGT0019,Ronald Schultz,qaustin@example.org,3832057018,South Curtis,Maine,Wyoming,Junior,2,2017-01-02,Multi-line,"English, Spanish, French",1179986,TM19
AGT0020,Stephanie Foster,riceraymond@example.net,(950)972-9146x5263,Dannyland,North Carolina,California,Senior,13,2024-10-19,Health,English,911883,TM04
AGT0021,Steven Marshall,jonathanhenderson@example.org,001-416-805-6070x8225,Roseburgh,Utah,West Virginia,Senior,12,2015-10-12,Property,"English, Spanish",1325852,TM18
AGT0022,Brett Brown,murphymichael@example.net,001-523-901-4423x62754,Melissaland,Georgia,Mississippi,Expert,16,2023-06-08,Multi-line,"English, French",1854515,TM04
AGT0023,Teresa Myers,jessica51@example.org,920-633-2234x20115,Port Tami,Nevada,Georgia,Senior,11,2017-05-09,Multi-line,"English, Spanish",1993021,TM10
AGT0024,Amy Small,devin76@example.org,(505)238-8073x328,West Richard,Connecticut,Colorado,Associate,6,2017-10-22,Property,English,1420891,TM16
AGT0025,David Chandler,edward68@example.net,668-549-9335,Clarkborough,West Virginia,Delaware,Junior,2,2020-07-12,Property,"English, French",1713882,TM14
AGT0026,Rachel Bush,williamsnancy@example.org,001-756-406-9440x5750,Yateschester,Idaho,Arkansas,Senior,10,2020-09-08,Health,English,1495199,TM12
AGT0027,James Luna,cynthianelson@example.org,+1-467-549-1194x1268,Paulburgh,Illinois,New Mexico,Senior,11,2022-06-11,Multi-line,English,1048636,TM11
AGT0028,Randall Walsh,alan24@example.org,(773)512-4856x36856,South Jacobview,Ohio,Delaware,Senior,13,2016-12-13,Multi-line,"English, French",1968778,TM04
AGT0029,Tina Stokes,jefferyburns@example.org,(853)981-4601,Kaylahaven,North Carolina,Oregon,Senior,12,2024-09-15,Property,"English, Spanish",538591,TM20
AGT0030,Amy Roberts,jennifer17@example.net,271.219.0361x82171,Stewartburgh,Connecticut,Utah,Expert,18,2019-04-02,Multi-line,"English, French",611109,TM19
AGT0031,Alison Mitchell,kaylamontgomery@example.net,+1-335-403-3214,Allisonton,West Virginia,Texas,Expert,18,2018-07-24,Health,English,583798,TM18
AGT0032,Nancy Lawrence,clopez@example.org,(972)588-0023x384,New Michael,Colorado,Georgia,Expert,15,2020-02-03,Health,English,1818545,TM03
AGT0033,John Hudson,murphydonald@example.com,372.789.8010,East Jamesside,Montana,New Jersey,Expert,16,2018-10-21,Health,"English, French",1556671,TM13
AGT0034,Jason Johnson,reginaldhogan@example.org,(290)761-6380,South Julieport,Georgia,Wisconsin,Associate,7,2023-09-04,Property,"English, French",1150022,TM05
AGT0035,James Williams,dnguyen@example.com,001-513-534-5070x99915,Mooremouth,Iowa,Arkansas,Associate,6,2017-04-22,Health,"English, Spanish",1497393,TM01
AGT0036,Donna Brown,rebecca64@example.org,001-794-781-7058,South Kimberlymouth,Texas,Tennessee,Expert,15,2016-03-15,Health,English,1278265,TM18
AGT0037,Heather Nguyen,david01@example.org,480-441-8988x7278,Jamieshire,Louisiana,Arkansas,Associate,5,2016-08-05,Health,English,558372,TM14
AGT0038,Rebecca Collins,aaron55@example.com,+1-521-924-0658x02236,Michaelchester,Mississippi,Virginia,Junior,3,2022-05-03,Life,"English, French",1577699,TM17
AGT0039,Jacob Hernandez DDS,ericgomez@example.org,668-696-0749x18981,Youngview,Alabama,Indiana,Junior,1,2018-08-22,Health,English,656601,TM12
AGT0040,Mr. Terry Stewart,qsweeney@example.org,(255)451-6654,Cookstad,Illinois,Connecticut,Junior,1,2024-07-26,Life,"English, Spanish, French",1650262,TM14
AGT0041,Kelli Lloyd,joshua27@example.com,945-856-7171,East Heidi,Hawaii,Virginia,Senior,13,2019-04-01,Health,"English, Spanish",1479068,TM13
AGT0042,Allison Smith,lisa31@example.org,001-326-261-4305x05769,Bradleyburgh,Utah,Missouri,Associate,7,2022-12-19,Health,English,1738549,TM14
AGT0043,Robert Rivas,verickson@example.com,870-725-9414x738,Nguyenhaven,Tennessee,Montana,Expert,18,2015-12-19,Property,"English, Spanish",1446340,TM18
AGT0044,Wendy Williams,charlesadams@example.net,2668658505,Alexmouth,Kansas,Nebraska,Senior,13,2019-05-13,Health,English,1776443,TM05
AGT0045,Lacey Baxter,brightphillip@example.org,910-809-4084,Brentville,Idaho,New York,Expert,17,2015-03-08,Multi-line,English,1148822,TM03
AGT0046,James Short,silvakayla@example.org,(314)270-5214x69661,Stevenstad,Maine,Arkansas,Senior,13,2024-05-17,Property,English,865434,TM16
AGT0047,William Hartman,xvargas@example.org,001-689-417-6104,New Tammymouth,Maryland,North Dakota,Expert,15,2022-03-14,Property,English,1358417,TM19
AGT0048,Pamela Martin,ramseyeric@example.com,368-445-9871x4670,East Brandyborough,Kentucky,Michigan,Senior,11,2018-02-10,Health,"English, Spanish",1531876,TM15
AGT0049,Katherine Zamora,lisacowan@example.org,826-502-6376x68886,Brownhaven,Maryland,Virginia,Associate,6,2016-12-19,Health,"English, French",1494027,TM13
AGT0050,Tiffany Haynes,juliebaker@example.org,001-797-522-2466x292,Millerview,New York,Pennsylvania,Associate,6,2019-07-24,Health,"English, Spanish",1936515,TM09
AGT0051,Barbara Hughes,modom@example.net,(667)992-4438x78671,Angelahaven,Wyoming,Iowa,Junior,1,2021-04-17,Multi-line,English,1104241,TM07
AGT0052,Shannon Greer,bjohns@example.org,001-891-534-2077x506,Matthewville,Missouri,Louisiana,Associate,5,2020-11-29,Property,"English, Spanish",1980768,TM01
AGT0053,Judy Young,michelle66@example.org,+1-360-490-8484x566,Davidmouth,Ohio,Iowa,Associate,8,2022-04-16,Property,"English, French",1617587,TM06
AGT0054,David Hernandez,robinward@example.com,+1-333-638-2993x113,Marshallborough,West Virginia,Rhode Island,Junior,1,2016-06-08,Life,"English, Spanish",518961,TM05
AGT0055,Joseph Yates,natashalewis@example.org,2047409980,West Laceyberg,South Carolina,Florida,Expert,19,2023-12-06,Health,"English, Spanish",908000,TM06
AGT0056,John Frederick,hillkristine@example.net,+1-525-358-1756x60652,Parkville,Rhode Island,Minnesota,Expert,17,2018-08-25,Health,English,1734382,TM08
AGT0057,Patricia Lee,kennethmurphy@example.com,429.223.7159,South Daisyland,Texas,Georgia,Junior,3,2018-05-16,Property,English,503510,TM03
AGT0058,Charles Manning,katieortiz@example.org,001-875-508-2858x80226,Port Reneebury,Indiana,Pennsylvania,Associate,7,2019-08-02,Life,"English, French",1013690,TM17
AGT0059,Anthony Lambert,brenda86@example.org,+1-201-979-7669x4561,Marquezport,Nevada,Missouri,Senior,11,2021-05-10,Multi-line,"English, Spanish",1998763,TM20
AGT0060,Wendy Wright,zmclaughlin@example.org,001-227-326-3230x5355,Coleview,Maryland,Kentucky,Senior,10,2021-09-15,Property,English,775175,TM11
AGT0061,Jennifer Miller,thomas29@example.com,750-564-9248,Kimberlymouth,Massachusetts,Louisiana,Expert,15,2015-10-07,Health,"English, French",1542600,TM04
AGT0062,Tonya Reyes,qweaver@example.org,001-961-717-0254,Lake Janehaven,New Jersey,Mississippi,Expert,15,2018-02-07,Property,English,868936,TM09
AGT0063,Tracy Rodriguez,hugheskatelyn@example.org,(558)393-8279,Jayland,Nebraska,Kansas,Senior,11,2022-07-22,Life,"English, Spanish, French",518126,TM03
AGT0064,James Waller,daleorr@example.com,(594)326-2707x73586,Erikaview,New York,Utah,Expert,17,2019-06-17,Multi-line,English,1509437,TM05
AGT0065,Jesse Kelly,david08@example.com,415.774.9128,East Robinburgh,West Virginia,Massachusetts,Associate,9,2024-09-18,Health,English,1883542,TM12
AGT0066,Joseph Orr,tmoody@example.org,001-822-924-1026,Kimberlyton,Maryland,Iowa,Expert,18,2020-08-03,Life,"English, French",1976348,TM06
AGT0067,Jennifer Graham,angela32@example.com,6807877986,Perezshire,California,Vermont,Senior,14,2019-08-25,Multi-line,"English, French",1688652,TM01
AGT0068,Karen Nelson,uashley@example.com,+1-987-581-8558x69040,Port James,Georgia,Virginia,Associate,9,2021-12-01,Health,English,1312979,TM16
AGT0069,Hannah Howard,matthewphillips@example.org,7307640353,North Sandraside,Nevada,Georgia,Associate,6,2023-08-22,Property,English,988681,TM03
AGT0070,Toni Wu,brice@example.net,330-823-0281,Lake Brandi,Wyoming,Georgia,Junior,3,2022-06-19,Multi-line,"English, Spanish, French",1835385,TM05
AGT0071,Shari Benitez,janicestanley@example.org,(455)948-3214x8728,Vickibury,Pennsylvania,Utah,Junior,2,2023-07-18,Life,"English, Spanish",908061,TM06
AGT0072,Vincent Ferrell PhD,elliottshaun@example.net,(979)546-4304,Lake Karen,South Dakota,Maryland,Junior,1,2023-10-30,Life,English,1718795,TM12
AGT0073,Robert Dougherty,brittany00@example.com,+1-719-206-0341,Lake Eric,Pennsylvania,Vermont,Expert,15,2017-12-31,Property,English,1653965,TM14
AGT0074,Steven Herman,brownmichael@example.com,590-374-7558,North Randall,Nebraska,Massachusetts,Associate,6,2016-10-03,Multi-line,"English, Spanish",1607170,TM02
AGT0075,David Johnson,paul30@example.com,886.989.9168,Mcgeefurt,Ohio,Florida,Junior,1,2015-05-27,Life,"English, Spanish",1265784,TM05
AGT0076,Jeremy Macdonald,davidsonrebecca@example.com,+1-789-962-3130x984,South Johntown,Utah,Wisconsin,Expert,16,2015-12-08,Health,English,732898,TM16
AGT0077,Andrew Bell,yhaas@example.com,+1-803-320-6136x1902,Whitneytown,Pennsylvania,Wyoming,Associate,7,2018-03-03,Life,"English, Spanish, French",1737022,TM11
AGT0078,Jordan Huff,timothysnow@example.com,(394)771-4360x330,Erikabury,Mississippi,Oklahoma,Associate,9,2015-12-06,Health,English,688509,TM01
AGT0079,Kelly Bryan,kylerodgers@example.com,+1-777-862-8023x30111,West Phillipshire,Rhode Island,Colorado,Senior,12,2024-03-31,Life,"English, Spanish",1598026,TM04
AGT0080,Thomas Perez,stephanieharrison@example.com,(935)578-1114,Lake Kevin,Maryland,Kentucky,Senior,10,2018-11-13,Property,English,605822,TM05
AGT0081,Christopher Savage,theresabaker@example.org,001-916-304-2026x351,Jacobfurt,Wyoming,Minnesota,Expert,18,2022-01-28,Property,English,990548,TM20
AGT0082,Dawn Thompson,caitlin81@example.com,+1-210-500-0164,East Emily,Louisiana,Mississippi,Expert,16,2024-06-27,Health,English,1098929,TM01
AGT0083,Rodney Morgan,shirleyking@example.com,349.801.4451,Port Thomasview,Pennsylvania,Minnesota,Associate,5,2019-04-19,Health,English,1219000,TM10
AGT0084,Shawn Ward,karenmurray@example.net,592.895.6489,Robertfurt,Nebraska,Alabama,Senior,12,2018-02-25,Health,"English, Spanish",873852,TM02
AGT0085,Trevor Mercer,isabellapratt@example.net,781-658-6060x21725,North Sabrina,Michigan,South Dakota,Expert,15,2020-03-24,Property,"English, French",1659585,TM08
AGT0086,Jamie Webb DVM,justin06@example.net,(876)870-1140,Rickytown,Illinois,North Carolina,Junior,1,2020-06-06,Multi-line,"English, Spanish",515913,TM02
AGT0087,Karen Smith,heathergriffin@example.org,344.395.2027x934,Port Sharon,Georgia,Maryland,Expert,19,2015-09-29,Multi-line,"English, Spanish",1226264,TM20
AGT0088,Catherine Jackson,erinpatel@example.org,+1-954-873-5260x0017,Palmerview,New Mexico,Iowa,Expert,17,2023-02-19,Property,English,1116216,TM07
AGT0089,Dustin Hanna,ggarcia@example.com,952.663.3764,Lake Jeffrey,Pennsylvania,New York,Junior,2,2020-02-05,Life,"English, French",653581,TM12
AGT0090,Rodney Gomez,alexander92@example.com,529-548-6897,Jonesshire,New Hampshire,Maine,Expert,16,2024-07-17,Property,"English, Spanish, French",1803668,TM04
AGT0091,Bernard Wong,brandywilliams@example.net,+1-817-832-4607x82770,Newmanport,Missouri,Utah,Senior,14,2016-06-08,Multi-line,English,1915732,TM13
AGT0092,Jacob James,burnetttanner@example.org,473-258-4345,Lake Robertmouth,Hawaii,Colorado,Associate,8,2023-09-08,Property,"English, Spanish, French",537916,TM02
AGT0093,Julie Dorsey,rlewis@example.net,9922442784,Lake Monicabury,West Virginia,Wisconsin,Associate,8,2024-10-28,Life,"English, French",1732846,TM04
AGT0094,Lisa Evans,kaylahuffman@example.net,(846)531-7807x82985,East Veronicamouth,New Jersey,Vermont,Senior,10,2023-01-22,Property,"English, French",909895,TM11
AGT0095,Brett Hensley,rodrigueztiffany@example.org,001-476-419-6969,New Scottberg,Oklahoma,Maryland,Associate,5,2017-10-30,Property,"English, Spanish",1956368,TM12
AGT0096,Cindy Knapp,zriggs@example.net,(859)543-1932,Olsonstad,Georgia,Missouri,Junior,4,2021-02-07,Property,"English, French",1132273,TM14
AGT0097,Melissa Johnson,jacob11@example.com,9578139160,Debbieton,New Jersey,Ohio,Expert,15,2016-06-02,Property,English,1427680,TM10
AGT0098,Daniel Long,krista31@example.com,8507155155,East Markside,Rhode Island,New York,Expert,15,2015-12-10,Health,"English, Spanish",948044,TM16
AGT0099,Steven Martinez,wrightruth@example.net,735.224.7470x23973,Nathanmouth,Arkansas,Washington,Senior,10,2018-04-05,Property,"English, French",1867236,TM18
AGT0100,Christine Green,johnsonjason@example.org,+1-930-568-6220x3085,Markfort,Indiana,New Mexico,Associate,8,2019-11-11,Life,"English, Spanish, French",1560068,TM11
AGT0101,Rebecca Wheeler,rgreen@example.com,+1-592-675-4299x48868,East Troy,Illinois,Illinois,Junior,3,2022-08-11,Health,"English, French",1500972,TM17
AGT0102,Cassidy Crawford,lellis@example.com,(951)357-2297,North Christopherchester,Iowa,Wyoming,Junior,3,2022-07-07,Property,"English, French",1999817,TM15
AGT0103,Cody Thomas,susanparsons@example.net,8027031972,Shannonside,Colorado,Alaska,Associate,7,2022-05-23,Property,English,708700,TM17
AGT0104,Tina Brooks,steven62@example.com,637.449.7392x20192,West Patrickshire,Ohio,Minnesota,Expert,19,2016-12-19,Multi-line,"English, Spanish, French",1025761,TM08
AGT0105,Maureen Lopez,carpentermichael@example.org,200-636-6811,Smithton,North Dakota,Delaware,Senior,11,2023-04-21,Property,"English, Spanish, French",1040100,TM12
AGT0106,Angela Ryan,gsmith@example.net,001-626-283-0752,Port Donna,Massachusetts,Wyoming,Junior,1,2019-06-28,Life,"English, Spanish",531155,TM10
AGT0107,Tammy Smith,wclements@example.net,+1-237-705-6995x6556,South Ricardoshire,Arizona,New Mexico,Senior,13,2023-10-07,Health,English,1090941,TM14
AGT0108,George Johnston,kimberlyritter@example.org,001-233-923-4547x908,Kimberlymouth,Vermont,Wisconsin,Senior,10,2021-12-28,Health,"English, Spanish",1451341,TM05
AGT0109,Shawna Davenport,julie57@example.net,8944353167,North Timothy,Montana,West Virginia,Senior,11,2019-06-13,Property,"English, Spanish",917750,TM19
AGT0110,Laura Wallace,beardbilly@example.com,681.810.1742x749,Port Marioport,Hawaii,Arkansas,Expert,15,2021-02-24,Multi-line,English,968932,TM08
AGT0111,Timothy Alvarez,masonjohnson@example.com,+1-376-970-1867x7004,New Benjaminstad,Colorado,Montana,Junior,1,2024-01-20,Property,"English, French",961120,TM05
AGT0112,Paul Griffin,sandra38@example.com,001-802-623-3613,Chelsealand,Vermont,South Carolina,Expert,19,2015-03-31,Health,English,1440032,TM10
AGT0113,Kathryn Calderon,zrivera@example.org,(349)815-7593x77408,Johnsonport,Texas,Oklahoma,Associate,6,2016-11-09,Property,"English, French",792956,TM18
AGT0114,Megan Williams,gregory23@example.net,(960)304-0397x27561,Osborneville,Missouri,Ohio,Associate,5,2016-10-09,Health,"English, Spanish, French",1875592,TM03
AGT0115,Marcus Ramos,vchan@example.org,+1-961-575-3320,Lake Kevinland,West Virginia,Utah,Associate,6,2021-04-26,Multi-line,"English, French",1193165,TM14
AGT0116,Courtney Abbott,michaelyoung@example.org,3486094517,Martinezmouth,North Dakota,Illinois,Senior,12,2023-03-04,Life,"English, Spanish",1367005,TM02
AGT0117,Danielle Gomez,jamesjordan@example.org,(511)915-6038x141,West Anthony,Connecticut,Idaho,Junior,1,2024-08-11,Health,"English, Spanish",684476,TM15
AGT0118,Brett Ruiz,irobinson@example.org,396.490.6290,West Barbaraton,Kansas,New York,Associate,6,2020-01-15,Health,"English, Spanish",604214,TM20
AGT0119,Mary Wagner,john45@example.net,414-798-1709,East Steven,Michigan,Montana,Expert,18,2020-02-21,Multi-line,English,1243767,TM09
AGT0120,Vanessa Kim,tanyashea@example.net,001-673-340-9151x004,Port Nicoleville,Wisconsin,Virginia,Senior,11,2022-11-18,Property,"English, French",932941,TM17
AGT0121,Linda Gonzalez,omontoya@example.org,001-930-223-5585x299,Port Robertville,Connecticut,Maine,Junior,2,2019-04-28,Life,"English, Spanish",1972497,TM10
AGT0122,Walter Reed,sydney93@example.com,(953)666-4951,Cindyside,New Hampshire,Missouri,Associate,9,2023-01-07,Health,English,1142463,TM16
AGT0123,Michele Ritter,mariahmontgomery@example.org,544-532-1011x1601,West Robert,Washington,New Mexico,Associate,8,2018-05-01,Health,"English, Spanish",1518835,TM20
AGT0124,Tara Walton,stevenallen@example.org,5029695116,Amandachester,Massachusetts,New York,Expert,18,2015-12-21,Multi-line,English,1132316,TM14
AGT0125,Danielle Johnson,schneiderbrian@example.net,255.315.6811x3180,Cynthiaborough,Delaware,Illinois,Associate,7,2022-04-04,Life,English,1037433,TM12
AGT0126,Philip Vaughan,shannongray@example.com,+1-455-805-2404x22452,Webbtown,Georgia,Minnesota,Senior,13,2023-04-07,Multi-line,"English, French",880812,TM11
AGT0127,Joseph Duncan,rothmichael@example.com,001-351-704-9455x2321,Jacksonside,Colorado,Ohio,Junior,3,2019-06-08,Multi-line,English,1283973,TM08
AGT0128,David Rojas,ytucker@example.net,363.819.9951x58612,South Amanda,Rhode Island,Louisiana,Associate,5,2017-04-13,Health,"English, French",1562774,TM03
AGT0129,Theresa Bell,ffields@example.org,(730)205-6105x2611,Darrellland,South Carolina,Alaska,Associate,9,2023-10-14,Multi-line,English,1659113,TM02
AGT0130,Kristina Johnson,kirsten84@example.com,383-703-2145,North Dianeside,Arizona,West Virginia,Senior,13,2015-05-14,Health,English,703778,TM01
AGT0131,Pamela Johnson,xdouglas@example.net,827.369.4471x3637,Rebeccamouth,Kentucky,Kansas,Senior,13,2019-02-13,Property,"English, Spanish, French",1703209,TM03
AGT0132,Dana Johnson,jonathan47@example.org,972-232-8627x3170,West Kimberly,Minnesota,Kentucky,Junior,1,2023-12-05,Health,"English, Spanish, French",742387,TM03
AGT0133,Miguel Garrett,maryboyd@example.org,001-373-823-8725x64418,Port Krista,Virginia,Georgia,Expert,19,2017-10-08,Property,English,1755662,TM08
AGT0134,Bill Simmons,benjamin20@example.com,001-228-267-4898x85231,Lake Lauraberg,Rhode Island,Illinois,Senior,11,2016-08-22,Multi-line,English,1051334,TM10
AGT0135,Joe Newman,nreynolds@example.org,500.515.6248x55606,Lake Jeffrey,Massachusetts,Montana,Associate,8,2015-05-24,Life,English,1520624,TM16
AGT0136,Tammy Cox,kristopher11@example.com,825.376.7158x0705,East Carlastad,Georgia,Indiana,Senior,12,2023-07-28,Property,"English, Spanish",1823055,TM03
AGT0137,Susan Morris,edwardsbonnie@example.org,821-768-8600x829,Oliverside,Nebraska,Iowa,Senior,13,2016-12-26,Life,English,516793,TM20
AGT0138,Sherry Walker,harrismary@example.net,478-342-0632x470,Lake Sandra,Georgia,North Carolina,Associate,6,2016-09-11,Multi-line,"English, French",1698669,TM07
AGT0139,Erica Howe,ysalas@example.net,001-232-339-0006x51797,Weberhaven,Indiana,New York,Senior,11,2016-08-12,Property,"English, Spanish",540443,TM02
AGT0140,Rebecca Davis,uwaters@example.org,494-778-4307x604,Elizabethport,Florida,Minnesota,Junior,3,2017-09-28,Property,"English, French",1827232,TM20
AGT0141,Melissa Owens,robertporter@example.com,(362)971-7593,Santiagoburgh,Virginia,Delaware,Junior,2,2024-05-10,Property,"English, Spanish",545764,TM12
AGT0142,Virginia Carlson,osbornmegan@example.com,3768823209,Brianburgh,Texas,Alabama,Junior,2,2023-05-10,Health,"English, French",1662135,TM01
AGT0143,Mark Turner,markskevin@example.org,657-515-2159,Lake Ryanstad,Alaska,Wyoming,Associate,9,2023-07-25,Health,"English, Spanish, French",743898,TM11
AGT0144,Susan Johns,odomalexandra@example.org,001-237-239-6279x08730,East Jeanbury,Tennessee,Maine,Associate,7,2024-11-19,Multi-line,"English, French",872191,TM01
AGT0145,Heather Brooks MD,garyjones@example.com,312.892.2431x119,West Ashley,Tennessee,South Dakota,Associate,9,2020-11-23,Health,"English, Spanish, French",1329026,TM14
AGT0146,Debra West,anthony18@example.com,001-520-969-3958x0364,Maciastown,Mississippi,South Carolina,Associate,5,2016-03-15,Property,"English, Spanish",1812463,TM18
AGT0147,Christopher Fuentes,staylor@example.com,899.245.1067x557,Jamesfort,Illinois,Maine,Senior,13,2017-07-09,Multi-line,English,551198,TM04
AGT0148,Crystal Martinez,omay@example.com,001-515-729-3804x72090,Jeffreyton,North Carolina,Illinois,Junior,4,2018-09-12,Multi-line,"English, Spanish",955692,TM18
AGT0149,Jessica Ruiz,ymartin@example.com,2155680757,Elliottview,North Carolina,Delaware,Associate,6,2019-10-25,Health,"English, Spanish",531137,TM05
AGT0150,Michael Chen,danielle87@example.org,(584)961-1540x1233,Anthonyshire,West Virginia,Massachusetts,Expert,16,2019-11-23,Health,"English, Spanish",1427800,TM09
AGT0151,Jessica Johnson,hhoward@example.org,+1-686-324-8195x13477,East Tracishire,Minnesota,New Mexico,Junior,1,2019-05-03,Property,"English, Spanish",1567161,TM20
AGT0152,Veronica Myers,tamara31@example.org,(816)757-0312x59681,North Jamesfurt,Massachusetts,Wisconsin,Senior,11,2017-10-24,Health,"English, French",819164,TM16
AGT0153,Gary Williams,choikathleen@example.org,+1-677-993-4223x679,Edwardmouth,Montana,Connecticut,Expert,19,2018-06-25,Property,"English, Spanish, French",970088,TM04
AGT0154,Paul Ward,christopher79@example.org,2619591058,Port Donna,Wyoming,Michigan,Expert,18,2020-09-17,Property,"English, Spanish",1216675,TM16
AGT0155,Vincent Gutierrez,jessica29@example.org,6545411811,North Austin,Wisconsin,Arizona,Senior,11,2016-06-19,Life,"English, French",1390407,TM13
AGT0156,Aaron Kaiser,lisabrooks@example.org,(848)391-1528,Ginaton,Missouri,Louisiana,Junior,2,2023-06-20,Health,"English, Spanish, French",1384533,TM03
AGT0157,Lori Le,nicolewilson@example.com,435.234.6126x87041,West Thomasside,Iowa,California,Associate,7,2016-04-08,Multi-line,"English, Spanish",1039622,TM01
AGT0158,Amanda Barry,tvega@example.net,2486282960,Sanchezchester,Massachusetts,Idaho,Junior,4,2020-04-27,Property,"English, French",883484,TM18
AGT0159,Laura Gonzalez,donnasoto@example.com,001-250-940-8208x6970,East Shaunview,Ohio,Florida,Expert,19,2018-02-26,Health,"English, Spanish",1508967,TM11
AGT0160,Suzanne Barnett,sanchezjeffrey@example.com,518.331.2402x066,East Johnbury,Oklahoma,Alabama,Senior,12,2017-04-02,Multi-line,English,949448,TM20
AGT0161,Omar Howard,scott10@example.com,403.739.2005,Garciaton,New Mexico,Oklahoma,Senior,14,2018-12-10,Health,"English, French",1850859,TM12
AGT0162,Suzanne Cannon,lawsonfernando@example.org,(522)361-6311x87919,New Saraberg,Arizona,Kentucky,Associate,7,2017-03-21,Multi-line,"English, Spanish",640556,TM18
AGT0163,Dr. Dustin Berg,laurawilliams@example.com,960.606.3188x2758,Greenland,California,Pennsylvania,Expert,19,2020-04-18,Property,"English, Spanish",1544940,TM08
AGT0164,Margaret Rice,stevennolan@example.org,+1-280-318-5917x7074,Traceybury,West Virginia,Massachusetts,Senior,14,2019-11-24,Health,"English, Spanish",1230568,TM18
AGT0165,Miss Diane Stanton,lauragriffith@example.net,268-712-4551x824,Susanchester,Virginia,Alaska,Associate,6,2020-06-03,Health,"English, Spanish",1023911,TM15
AGT0166,Stephanie Coleman,patrickbarry@example.org,818.957.9076x9571,Port Masonport,Minnesota,Missouri,Associate,8,2020-01-30,Property,English,1508082,TM13
AGT0167,Mark Berry,thomasvazquez@example.org,328-324-3068,Oconnellhaven,Virginia,North Carolina,Expert,15,2024-07-08,Property,"English, Spanish",1723255,TM16
AGT0168,Valerie Black,phillip00@example.com,348.432.4943,Garciaberg,Oklahoma,California,Junior,2,2024-03-04,Property,English,1291096,TM05
AGT0169,Thomas Wells,matthew49@example.com,642-886-6855,South Paulfurt,Michigan,Iowa,Senior,12,2018-10-15,Life,English,651973,TM13
AGT0170,Connie Lewis,sowens@example.org,(232)635-9092,Douglasborough,Massachusetts,Rhode Island,Senior,14,2016-04-18,Multi-line,English,1175204,TM11
AGT0171,Tina Lopez,ericalvarado@example.com,+1-971-260-8617x45176,North Andrea,Tennessee,Idaho,Expert,16,2022-10-24,Life,"English, French",1617067,TM08
AGT0172,April Cross,anthonylloyd@example.com,(698)411-0740,South April,Maine,New York,Senior,13,2022-04-28,Multi-line,English,1192862,TM11
AGT0173,Debra Coleman,shane44@example.net,001-377-911-0117,Rogersport,Iowa,North Carolina,Associate,5,2018-07-08,Property,"English, French",889711,TM11
AGT0174,Matthew Ray,alexandercraig@example.com,+1-709-868-6298,North Dennishaven,Wyoming,Nevada,Associate,9,2017-11-22,Health,English,1945293,TM18
AGT0175,Pamela Brown,chanjustin@example.com,+1-379-737-9024x2924,Rhodestown,Wisconsin,Wisconsin,Expert,17,2021-02-15,Multi-line,English,1745451,TM17
AGT0176,Emily Kane,hfreeman@example.com,+1-820-868-3303x99218,Lucasshire,North Dakota,Indiana,Associate,7,2015-08-08,Property,English,1985948,TM09
AGT0177,Natalie Booth,david72@example.net,+1-627-490-4910x351,Bradleyfort,Nebraska,Delaware,Associate,7,2019-11-14,Multi-line,"English, Spanish",974106,TM01
AGT0178,Steven Williams,upadilla@example.net,001-589-630-5943x000,Vaughnbury,New Jersey,Massachusetts,Senior,14,2023-07-06,Property,"English, Spanish, French",1978454,TM07
AGT0179,Ashley Scott,angela26@example.org,668.538.5928x81288,Gordonhaven,Tennessee,Tennessee,Expert,19,2018-11-16,Life,"English, Spanish",525199,TM07
AGT0180,Stephanie Smith,wjohnson@example.com,3258241968,Williamsborough,Montana,Louisiana,Senior,11,2018-04-14,Life,"English, Spanish",738024,TM05
AGT0181,Thomas Stevens,murphykevin@example.net,2072108539,South Christian,Maryland,Wyoming,Senior,10,2020-07-31,Health,English,713834,TM02
AGT0182,Jimmy Wheeler,vasquezmorgan@example.net,(731)552-1011x61342,North Steven,Maryland,South Carolina,Associate,8,2019-07-22,Health,"English, Spanish",664993,TM08
AGT0183,Jennifer Smith,anna70@example.net,804-814-3061x0221,West Peggy,Pennsylvania,North Carolina,Expert,15,2023-10-07,Property,"English, Spanish",1700131,TM12
AGT0184,Erin Roberts,riosdesiree@example.net,428.617.8868x94104,Gregorymouth,Alabama,West Virginia,Associate,7,2015-06-22,Multi-line,"English, Spanish",667410,TM15
AGT0185,Monica Smith,vpetty@example.com,402.741.4223x16029,Ashleytown,Idaho,Massachusetts,Expert,18,2019-02-01,Health,"English, Spanish",1528349,TM14
AGT0186,Kenneth Lane,dalemarquez@example.net,(750)478-6469,Smithbury,Rhode Island,Delaware,Senior,14,2017-06-23,Multi-line,"English, Spanish",619273,TM04
AGT0187,Rose Fuller,tarafitzgerald@example.net,001-692-287-6486x91019,Nuneztown,Hawaii,South Carolina,Junior,3,2019-07-15,Property,English,1443948,TM04
AGT0188,Scott Sutton,hhall@example.com,846.718.4707x31542,East Beth,Florida,New York,Expert,19,2022-05-03,Property,"English, Spanish",1857005,TM04
AGT0189,Kimberly Parker,jcook@example.net,+1-897-289-5907x096,Sharonville,Oregon,Kansas,Junior,3,2023-01-15,Multi-line,English,1784411,TM05
AGT0190,Kimberly Smith,kmcconnell@example.org,+1-924-262-2976,Lopeztown,New Jersey,New York,Associate,6,2021-05-02,Health,English,593546,TM17
AGT0191,Colleen Edwards,franklinsamantha@example.net,609.784.7970,North Jamesmouth,Mississippi,Alaska,Senior,12,2020-12-07,Property,"English, Spanish",1157041,TM10
AGT0192,Lindsay Carter,levi91@example.org,001-399-575-1097,Laurietown,New York,Texas,Associate,6,2018-09-25,Multi-line,"English, Spanish, French",1593382,TM11
AGT0193,Harry Anderson,rebeccanorman@example.net,674-836-7876,East Wandashire,Mississippi,Colorado,Senior,13,2018-05-24,Multi-line,"English, Spanish",1914627,TM12
AGT0194,Michael Hernandez,andrea78@example.com,(714)484-3580x937,Fullermouth,South Dakota,Pennsylvania,Expert,18,2015-10-19,Property,English,1249128,TM18
AGT0195,James Spencer,qcoffey@example.com,(323)423-1316,Williamsburgh,California,Rhode Island,Senior,12,2020-08-02,Health,English,1971235,TM20
AGT0196,Alyssa Kaiser,jennifer05@example.net,001-939-882-9613x56335,West Jacobfort,Texas,Wyoming,Expert,18,2018-06-04,Life,"English, French",1527366,TM11
AGT0197,Nathan Fisher,candacejones@example.org,+1-433-559-0328x374,West Dennistown,Pennsylvania,Washington,Expert,16,2018-05-05,Life,"English, Spanish, French",951936,TM12
AGT0198,Kyle Carson,tayloranderson@example.net,001-365-759-5091x190,North Stacey,Vermont,Georgia,Junior,1,2022-06-22,Multi-line,"English, French",1829080,TM05
AGT0199,Karen Sanders,richardsandrew@example.com,+1-615-963-8276,Lake Zachary,Hawaii,Georgia,Junior,4,2023-09-19,Health,"English, French",731229,TM16
